{
  "type": "FeatureCollection",
  "features": [
    {
      "type": "Feature",
      "properties": {
        "zone_name": "URBANO_CENTRAL",
        "schedule": "NOCTURNO (21:00)",
        "color": "#ff0000"
      },
      "geometry": {
        "type": "Polygon",
        "coordinates": [
          [
            [
              -78.625,
              -0.925
            ],
            [
              -78.61,
              -0.925
            ],
            [
              -78.61,
              -0.945
            ],
            [
              -78.625,
              -0.945
            ],
            [
              -78.625,
              -0.925
            ]
          ]
        ]
      },
      "id": 0
    },
    {
      "type": "Feature",
      "properties": {
        "zone_name": "URBANO_NORTE",
        "schedule": "DIURNO (Mar-Jue-Sab)",
        "color": "#00ff00"
      },
      "geometry": {
        "type": "Polygon",
        "coordinates": [
          [
            [
              -78.625,
              -0.925
            ],
            [
              -78.61,
              -0.925
            ],
            [
              -78.6,
              -0.89
            ],
            [
              -78.63,
              -0.89
            ],
            [
              -78.625,
              -0.925
            ]
          ]
        ]
      },
      "id": 1
    },
    {
      "type": "Feature",
      "properties": {
        "zone_name": "URBANO_SUR",
        "schedule": "DIURNO (Lun-Mie-Vie)",
        "color": "#0000ff"
      },
      "geometry": {
        "type": "Polygon",
        "coordinates": [
          [
            [
              -78.625,
              -0.945
            ],
            [
              -78.61,
              -0.945
            ],
            [
              -78.6,
              -0.98
            ],
            [
              -78.64,
              -0.98
            ],
            [
              -78.625,
              -0.945
            ]
          ]
        ]
      },
      "id": 2
    },
    {
      "type": "Feature",
      "properties": {
        "zone_name": "RURAL_NORTE",
        "schedule": "RURAL (Rutas 2,3,4)",
        "color": "#ffff00"
      },
      "geometry": {
        "type": "Polygon",
        "coordinates": [
          [
            [
              -78.63,
              -0.89
            ],
            [
              -78.6,
              -0.89
            ],
            [
              -78.55,
              -0.8
            ],
            [
              -78.7,
              -0.8
            ],
            [
              -78.63,
              -0.89
            ]
          ]
        ]
      },
      "id": 3
    },
    {
      "type": "Feature",
      "properties": {
        "zone_name": "RURAL_SUR",
        "schedule": "RURAL (Rutas 1,5)",
        "color": "#ff00ff"
      },
      "geometry": {
        "type": "Polygon",
        "coordinates": [
          [
            [
              -78.64,
              -0.98
            ],
            [
              -78.6,
              -0.98
            ],
            [
              -78.55,
              -1.05
            ],
            [
              -78.7,
              -1.05
            ],
            [
              -78.64,
              -0.98
            ]
          ]
        ]
      },
      "id": 4
    }
  ]
}
