{
  "type": "FeatureCollection",
  "features": [
    {
      "type": "Feature",
      "geometry": {
        "type": "MultiPolygon",
        "coordinates": [
          [
            [
              [
                -78.610595,
                -0.934423
              ],
              [
                -78.612038,
                -0.937123
              ],
              [
                -78.614968,
                -0.938012
              ],
              [
                -78.617668,
                -0.936569
              ],
              [
                -78.618557,
                -0.933639
              ],
              [
                -78.617113,
                -0.930939
              ],
              [
                -78.614184,
                -0.93005
              ],
              [
                -78.611484,
                -0.931494
              ],
              [
                -78.610595,
                -0.934423
              ]
            ]
          ],
          [
            [
              [
                -78.600125,
                -0.800934
              ],
              [
                -78.601568,
                -0.803634
              ],
              [
                -78.604498,
                -0.804523
              ],
              [
                -78.607198,
                -0.803079
              ],
              [
                -78.608087,
                -0.80015
              ],
              [
                -78.606643,
                -0.79745
              ],
              [
                -78.603714,
                -0.796561
              ],
              [
                -78.601014,
                -0.798004
              ],
              [
                -78.600125,
                -0.800934
              ]
            ]
          ]
        ]
      },
      "properties": {
        "zone_name": "RUTA 1 LUNES",
        "points_count": 2,
        "route_id": "RUTA_1",
        "day": "LUNES"
      }
    },
    {
      "type": "Feature",
      "geometry": {
        "type": "MultiPolygon",
        "coordinates": [
          [
            [
              [
                -78.610595,
                -0.934423
              ],
              [
                -78.612038,
                -0.937123
              ],
              [
                -78.614968,
                -0.938012
              ],
              [
                -78.617668,
                -0.936569
              ],
              [
                -78.618557,
                -0.933639
              ],
              [
                -78.617113,
                -0.930939
              ],
              [
                -78.614184,
                -0.93005
              ],
              [
                -78.611484,
                -0.931494
              ],
              [
                -78.610595,
                -0.934423
              ]
            ]
          ],
          [
            [
              [
                -78.600125,
                -0.800934
              ],
              [
                -78.601568,
                -0.803634
              ],
              [
                -78.604498,
                -0.804523
              ],
              [
                -78.607198,
                -0.803079
              ],
              [
                -78.608087,
                -0.80015
              ],
              [
                -78.606643,
                -0.79745
              ],
              [
                -78.603714,
                -0.796561
              ],
              [
                -78.601014,
                -0.798004
              ],
              [
                -78.600125,
                -0.800934
              ]
            ]
          ]
        ]
      },
      "properties": {
        "zone_name": "RUTA 1 MARTES",
        "points_count": 2,
        "route_id": "RUTA_1",
        "day": "MARTES"
      }
    },
    {
      "type": "Feature",
      "geometry": {
        "type": "MultiPolygon",
        "coordinates": [
          [
            [
              [
                -78.610595,
                -0.934423
              ],
              [
                -78.612038,
                -0.937123
              ],
              [
                -78.614968,
                -0.938012
              ],
              [
                -78.617668,
                -0.936569
              ],
              [
                -78.618557,
                -0.933639
              ],
              [
                -78.617113,
                -0.930939
              ],
              [
                -78.614184,
                -0.93005
              ],
              [
                -78.611484,
                -0.931494
              ],
              [
                -78.610595,
                -0.934423
              ]
            ]
          ],
          [
            [
              [
                -78.600125,
                -0.800934
              ],
              [
                -78.601568,
                -0.803634
              ],
              [
                -78.604498,
                -0.804523
              ],
              [
                -78.607198,
                -0.803079
              ],
              [
                -78.608087,
                -0.80015
              ],
              [
                -78.606643,
                -0.79745
              ],
              [
                -78.603714,
                -0.796561
              ],
              [
                -78.601014,
                -0.798004
              ],
              [
                -78.600125,
                -0.800934
              ]
            ]
          ]
        ]
      },
      "properties": {
        "zone_name": "RUTA 1 MIERCOLES",
        "points_count": 2,
        "route_id": "RUTA_1",
        "day": "MIERCOLES"
      }
    },
    {
      "type": "Feature",
      "geometry": {
        "type": "MultiPolygon",
        "coordinates": [
          [
            [
              [
                -78.610595,
                -0.934423
              ],
              [
                -78.612038,
                -0.937123
              ],
              [
                -78.614968,
                -0.938012
              ],
              [
                -78.617668,
                -0.936569
              ],
              [
                -78.618557,
                -0.933639
              ],
              [
                -78.617113,
                -0.930939
              ],
              [
                -78.614184,
                -0.93005
              ],
              [
                -78.611484,
                -0.931494
              ],
              [
                -78.610595,
                -0.934423
              ]
            ]
          ],
          [
            [
              [
                -78.600125,
                -0.800934
              ],
              [
                -78.601568,
                -0.803634
              ],
              [
                -78.604498,
                -0.804523
              ],
              [
                -78.607198,
                -0.803079
              ],
              [
                -78.608087,
                -0.80015
              ],
              [
                -78.606643,
                -0.79745
              ],
              [
                -78.603714,
                -0.796561
              ],
              [
                -78.601014,
                -0.798004
              ],
              [
                -78.600125,
                -0.800934
              ]
            ]
          ]
        ]
      },
      "properties": {
        "zone_name": "RUTA 1 JUEVES",
        "points_count": 2,
        "route_id": "RUTA_1",
        "day": "JUEVES"
      }
    },
    {
      "type": "Feature",
      "geometry": {
        "type": "MultiPolygon",
        "coordinates": [
          [
            [
              [
                -78.610595,
                -0.934423
              ],
              [
                -78.612038,
                -0.937123
              ],
              [
                -78.614968,
                -0.938012
              ],
              [
                -78.617668,
                -0.936569
              ],
              [
                -78.618557,
                -0.933639
              ],
              [
                -78.617113,
                -0.930939
              ],
              [
                -78.614184,
                -0.93005
              ],
              [
                -78.611484,
                -0.931494
              ],
              [
                -78.610595,
                -0.934423
              ]
            ]
          ],
          [
            [
              [
                -78.600125,
                -0.800934
              ],
              [
                -78.601568,
                -0.803634
              ],
              [
                -78.604498,
                -0.804523
              ],
              [
                -78.607198,
                -0.803079
              ],
              [
                -78.608087,
                -0.80015
              ],
              [
                -78.606643,
                -0.79745
              ],
              [
                -78.603714,
                -0.796561
              ],
              [
                -78.601014,
                -0.798004
              ],
              [
                -78.600125,
                -0.800934
              ]
            ]
          ]
        ]
      },
      "properties": {
        "zone_name": "RUTA 1 VIERNES",
        "points_count": 2,
        "route_id": "RUTA_1",
        "day": "VIERNES"
      }
    },
    {
      "type": "Feature",
      "geometry": {
        "type": "Polygon",
        "coordinates": [
          [
            [
              -78.610576,
              -0.934031
            ],
            [
              -78.610595,
              -0.934423
            ],
            [
              -78.610653,
              -0.934811
            ],
            [
              -78.610748,
              -0.935192
            ],
            [
              -78.61088,
              -0.935562
            ],
            [
              -78.611048,
              -0.935917
            ],
            [
              -78.61125,
              -0.936253
            ],
            [
              -78.611484,
              -0.936569
            ],
            [
              -78.611747,
              -0.93686
            ],
            [
              -78.612038,
              -0.937123
            ],
            [
              -78.612354,
              -0.937357
            ],
            [
              -78.61269,
              -0.937559
            ],
            [
              -78.613045,
              -0.937727
            ],
            [
              -78.613415,
              -0.937859
            ],
            [
              -78.613795,
              -0.937954
            ],
            [
              -78.614184,
              -0.938012
            ],
            [
              -78.614576,
              -0.938031
            ],
            [
              -78.614968,
              -0.938012
            ],
            [
              -78.615356,
              -0.937954
            ],
            [
              -78.615737,
              -0.937859
            ],
            [
              -78.616107,
              -0.937727
            ],
            [
              -78.616461,
              -0.937559
            ],
            [
              -78.616798,
              -0.937357
            ],
            [
              -78.617113,
              -0.937123
            ],
            [
              -78.617404,
              -0.93686
            ],
            [
              -78.617668,
              -0.936569
            ],
            [
              -78.617902,
              -0.936253
            ],
            [
              -78.618103,
              -0.935917
            ],
            [
              -78.618271,
              -0.935562
            ],
            [
              -78.618404,
              -0.935192
            ],
            [
              -78.618499,
              -0.934811
            ],
            [
              -78.618557,
              -0.934423
            ],
            [
              -78.618576,
              -0.934031
            ],
            [
              -78.618557,
              -0.933639
            ],
            [
              -78.618499,
              -0.933251
            ],
            [
              -78.618404,
              -0.93287
            ],
            [
              -78.618271,
              -0.9325
            ],
            [
              -78.618103,
              -0.932146
            ],
            [
              -78.617902,
              -0.931809
            ],
            [
              -78.617668,
              -0.931494
            ],
            [
              -78.617404,
              -0.931203
            ],
            [
              -78.617113,
              -0.930939
            ],
            [
              -78.616798,
              -0.930705
            ],
            [
              -78.616461,
              -0.930503
            ],
            [
              -78.616107,
              -0.930336
            ],
            [
              -78.615737,
              -0.930203
            ],
            [
              -78.615356,
              -0.930108
            ],
            [
              -78.614968,
              -0.93005
            ],
            [
              -78.614576,
              -0.930031
            ],
            [
              -78.614184,
              -0.93005
            ],
            [
              -78.613795,
              -0.930108
            ],
            [
              -78.613415,
              -0.930203
            ],
            [
              -78.613045,
              -0.930336
            ],
            [
              -78.61269,
              -0.930503
            ],
            [
              -78.612354,
              -0.930705
            ],
            [
              -78.612038,
              -0.930939
            ],
            [
              -78.611747,
              -0.931203
            ],
            [
              -78.611484,
              -0.931494
            ],
            [
              -78.61125,
              -0.931809
            ],
            [
              -78.611048,
              -0.932146
            ],
            [
              -78.61088,
              -0.9325
            ],
            [
              -78.610748,
              -0.93287
            ],
            [
              -78.610653,
              -0.933251
            ],
            [
              -78.610595,
              -0.933639
            ],
            [
              -78.610576,
              -0.934031
            ]
          ]
        ]
      },
      "properties": {
        "zone_name": "RUTA 2 LUNES",
        "points_count": 3,
        "route_id": "RUTA_2",
        "day": "LUNES"
      }
    },
    {
      "type": "Feature",
      "geometry": {
        "type": "Polygon",
        "coordinates": [
          [
            [
              -78.610576,
              -0.934031
            ],
            [
              -78.610595,
              -0.934423
            ],
            [
              -78.610653,
              -0.934811
            ],
            [
              -78.610748,
              -0.935192
            ],
            [
              -78.61088,
              -0.935562
            ],
            [
              -78.611048,
              -0.935917
            ],
            [
              -78.61125,
              -0.936253
            ],
            [
              -78.611484,
              -0.936569
            ],
            [
              -78.611747,
              -0.93686
            ],
            [
              -78.612038,
              -0.937123
            ],
            [
              -78.612354,
              -0.937357
            ],
            [
              -78.61269,
              -0.937559
            ],
            [
              -78.613045,
              -0.937727
            ],
            [
              -78.613415,
              -0.937859
            ],
            [
              -78.613795,
              -0.937954
            ],
            [
              -78.614184,
              -0.938012
            ],
            [
              -78.614576,
              -0.938031
            ],
            [
              -78.614968,
              -0.938012
            ],
            [
              -78.615356,
              -0.937954
            ],
            [
              -78.615737,
              -0.937859
            ],
            [
              -78.616107,
              -0.937727
            ],
            [
              -78.616461,
              -0.937559
            ],
            [
              -78.616798,
              -0.937357
            ],
            [
              -78.617113,
              -0.937123
            ],
            [
              -78.617404,
              -0.93686
            ],
            [
              -78.617668,
              -0.936569
            ],
            [
              -78.617902,
              -0.936253
            ],
            [
              -78.618103,
              -0.935917
            ],
            [
              -78.618271,
              -0.935562
            ],
            [
              -78.618404,
              -0.935192
            ],
            [
              -78.618499,
              -0.934811
            ],
            [
              -78.618557,
              -0.934423
            ],
            [
              -78.618576,
              -0.934031
            ],
            [
              -78.618557,
              -0.933639
            ],
            [
              -78.618499,
              -0.933251
            ],
            [
              -78.618404,
              -0.93287
            ],
            [
              -78.618271,
              -0.9325
            ],
            [
              -78.618103,
              -0.932146
            ],
            [
              -78.617902,
              -0.931809
            ],
            [
              -78.617668,
              -0.931494
            ],
            [
              -78.617404,
              -0.931203
            ],
            [
              -78.617113,
              -0.930939
            ],
            [
              -78.616798,
              -0.930705
            ],
            [
              -78.616461,
              -0.930503
            ],
            [
              -78.616107,
              -0.930336
            ],
            [
              -78.615737,
              -0.930203
            ],
            [
              -78.615356,
              -0.930108
            ],
            [
              -78.614968,
              -0.93005
            ],
            [
              -78.614576,
              -0.930031
            ],
            [
              -78.614184,
              -0.93005
            ],
            [
              -78.613795,
              -0.930108
            ],
            [
              -78.613415,
              -0.930203
            ],
            [
              -78.613045,
              -0.930336
            ],
            [
              -78.61269,
              -0.930503
            ],
            [
              -78.612354,
              -0.930705
            ],
            [
              -78.612038,
              -0.930939
            ],
            [
              -78.611747,
              -0.931203
            ],
            [
              -78.611484,
              -0.931494
            ],
            [
              -78.61125,
              -0.931809
            ],
            [
              -78.611048,
              -0.932146
            ],
            [
              -78.61088,
              -0.9325
            ],
            [
              -78.610748,
              -0.93287
            ],
            [
              -78.610653,
              -0.933251
            ],
            [
              -78.610595,
              -0.933639
            ],
            [
              -78.610576,
              -0.934031
            ]
          ]
        ]
      },
      "properties": {
        "zone_name": "RUTA 2 MARTES",
        "points_count": 3,
        "route_id": "RUTA_2",
        "day": "MARTES"
      }
    },
    {
      "type": "Feature",
      "geometry": {
        "type": "Polygon",
        "coordinates": [
          [
            [
              -78.610576,
              -0.934031
            ],
            [
              -78.610595,
              -0.934423
            ],
            [
              -78.610653,
              -0.934811
            ],
            [
              -78.610748,
              -0.935192
            ],
            [
              -78.61088,
              -0.935562
            ],
            [
              -78.611048,
              -0.935917
            ],
            [
              -78.61125,
              -0.936253
            ],
            [
              -78.611484,
              -0.936569
            ],
            [
              -78.611747,
              -0.93686
            ],
            [
              -78.612038,
              -0.937123
            ],
            [
              -78.612354,
              -0.937357
            ],
            [
              -78.61269,
              -0.937559
            ],
            [
              -78.613045,
              -0.937727
            ],
            [
              -78.613415,
              -0.937859
            ],
            [
              -78.613795,
              -0.937954
            ],
            [
              -78.614184,
              -0.938012
            ],
            [
              -78.614576,
              -0.938031
            ],
            [
              -78.614968,
              -0.938012
            ],
            [
              -78.615356,
              -0.937954
            ],
            [
              -78.615737,
              -0.937859
            ],
            [
              -78.616107,
              -0.937727
            ],
            [
              -78.616461,
              -0.937559
            ],
            [
              -78.616798,
              -0.937357
            ],
            [
              -78.617113,
              -0.937123
            ],
            [
              -78.617404,
              -0.93686
            ],
            [
              -78.617668,
              -0.936569
            ],
            [
              -78.617902,
              -0.936253
            ],
            [
              -78.618103,
              -0.935917
            ],
            [
              -78.618271,
              -0.935562
            ],
            [
              -78.618404,
              -0.935192
            ],
            [
              -78.618499,
              -0.934811
            ],
            [
              -78.618557,
              -0.934423
            ],
            [
              -78.618576,
              -0.934031
            ],
            [
              -78.618557,
              -0.933639
            ],
            [
              -78.618499,
              -0.933251
            ],
            [
              -78.618404,
              -0.93287
            ],
            [
              -78.618271,
              -0.9325
            ],
            [
              -78.618103,
              -0.932146
            ],
            [
              -78.617902,
              -0.931809
            ],
            [
              -78.617668,
              -0.931494
            ],
            [
              -78.617404,
              -0.931203
            ],
            [
              -78.617113,
              -0.930939
            ],
            [
              -78.616798,
              -0.930705
            ],
            [
              -78.616461,
              -0.930503
            ],
            [
              -78.616107,
              -0.930336
            ],
            [
              -78.615737,
              -0.930203
            ],
            [
              -78.615356,
              -0.930108
            ],
            [
              -78.614968,
              -0.93005
            ],
            [
              -78.614576,
              -0.930031
            ],
            [
              -78.614184,
              -0.93005
            ],
            [
              -78.613795,
              -0.930108
            ],
            [
              -78.613415,
              -0.930203
            ],
            [
              -78.613045,
              -0.930336
            ],
            [
              -78.61269,
              -0.930503
            ],
            [
              -78.612354,
              -0.930705
            ],
            [
              -78.612038,
              -0.930939
            ],
            [
              -78.611747,
              -0.931203
            ],
            [
              -78.611484,
              -0.931494
            ],
            [
              -78.61125,
              -0.931809
            ],
            [
              -78.611048,
              -0.932146
            ],
            [
              -78.61088,
              -0.9325
            ],
            [
              -78.610748,
              -0.93287
            ],
            [
              -78.610653,
              -0.933251
            ],
            [
              -78.610595,
              -0.933639
            ],
            [
              -78.610576,
              -0.934031
            ]
          ]
        ]
      },
      "properties": {
        "zone_name": "RUTA 2 MIERCOLES",
        "points_count": 3,
        "route_id": "RUTA_2",
        "day": "MIERCOLES"
      }
    },
    {
      "type": "Feature",
      "geometry": {
        "type": "Polygon",
        "coordinates": [
          [
            [
              -78.610576,
              -0.934031
            ],
            [
              -78.610595,
              -0.934423
            ],
            [
              -78.610653,
              -0.934811
            ],
            [
              -78.610748,
              -0.935192
            ],
            [
              -78.61088,
              -0.935562
            ],
            [
              -78.611048,
              -0.935917
            ],
            [
              -78.61125,
              -0.936253
            ],
            [
              -78.611484,
              -0.936569
            ],
            [
              -78.611747,
              -0.93686
            ],
            [
              -78.612038,
              -0.937123
            ],
            [
              -78.612354,
              -0.937357
            ],
            [
              -78.61269,
              -0.937559
            ],
            [
              -78.613045,
              -0.937727
            ],
            [
              -78.613415,
              -0.937859
            ],
            [
              -78.613795,
              -0.937954
            ],
            [
              -78.614184,
              -0.938012
            ],
            [
              -78.614576,
              -0.938031
            ],
            [
              -78.614968,
              -0.938012
            ],
            [
              -78.615356,
              -0.937954
            ],
            [
              -78.615737,
              -0.937859
            ],
            [
              -78.616107,
              -0.937727
            ],
            [
              -78.616461,
              -0.937559
            ],
            [
              -78.616798,
              -0.937357
            ],
            [
              -78.617113,
              -0.937123
            ],
            [
              -78.617404,
              -0.93686
            ],
            [
              -78.617668,
              -0.936569
            ],
            [
              -78.617902,
              -0.936253
            ],
            [
              -78.618103,
              -0.935917
            ],
            [
              -78.618271,
              -0.935562
            ],
            [
              -78.618404,
              -0.935192
            ],
            [
              -78.618499,
              -0.934811
            ],
            [
              -78.618557,
              -0.934423
            ],
            [
              -78.618576,
              -0.934031
            ],
            [
              -78.618557,
              -0.933639
            ],
            [
              -78.618499,
              -0.933251
            ],
            [
              -78.618404,
              -0.93287
            ],
            [
              -78.618271,
              -0.9325
            ],
            [
              -78.618103,
              -0.932146
            ],
            [
              -78.617902,
              -0.931809
            ],
            [
              -78.617668,
              -0.931494
            ],
            [
              -78.617404,
              -0.931203
            ],
            [
              -78.617113,
              -0.930939
            ],
            [
              -78.616798,
              -0.930705
            ],
            [
              -78.616461,
              -0.930503
            ],
            [
              -78.616107,
              -0.930336
            ],
            [
              -78.615737,
              -0.930203
            ],
            [
              -78.615356,
              -0.930108
            ],
            [
              -78.614968,
              -0.93005
            ],
            [
              -78.614576,
              -0.930031
            ],
            [
              -78.614184,
              -0.93005
            ],
            [
              -78.613795,
              -0.930108
            ],
            [
              -78.613415,
              -0.930203
            ],
            [
              -78.613045,
              -0.930336
            ],
            [
              -78.61269,
              -0.930503
            ],
            [
              -78.612354,
              -0.930705
            ],
            [
              -78.612038,
              -0.930939
            ],
            [
              -78.611747,
              -0.931203
            ],
            [
              -78.611484,
              -0.931494
            ],
            [
              -78.61125,
              -0.931809
            ],
            [
              -78.611048,
              -0.932146
            ],
            [
              -78.61088,
              -0.9325
            ],
            [
              -78.610748,
              -0.93287
            ],
            [
              -78.610653,
              -0.933251
            ],
            [
              -78.610595,
              -0.933639
            ],
            [
              -78.610576,
              -0.934031
            ]
          ]
        ]
      },
      "properties": {
        "zone_name": "RUTA 2 JUEVES",
        "points_count": 3,
        "route_id": "RUTA_2",
        "day": "JUEVES"
      }
    },
    {
      "type": "Feature",
      "geometry": {
        "type": "MultiPolygon",
        "coordinates": [
          [
            [
              [
                -78.610595,
                -0.934423
              ],
              [
                -78.612038,
                -0.937123
              ],
              [
                -78.614968,
                -0.938012
              ],
              [
                -78.617668,
                -0.936569
              ],
              [
                -78.618557,
                -0.933639
              ],
              [
                -78.617113,
                -0.930939
              ],
              [
                -78.614184,
                -0.93005
              ],
              [
                -78.611484,
                -0.931494
              ],
              [
                -78.610595,
                -0.934423
              ]
            ]
          ],
          [
            [
              [
                -78.600125,
                -0.800934
              ],
              [
                -78.601568,
                -0.803634
              ],
              [
                -78.604498,
                -0.804523
              ],
              [
                -78.607198,
                -0.803079
              ],
              [
                -78.608087,
                -0.80015
              ],
              [
                -78.606643,
                -0.79745
              ],
              [
                -78.603714,
                -0.796561
              ],
              [
                -78.601014,
                -0.798004
              ],
              [
                -78.600125,
                -0.800934
              ]
            ]
          ]
        ]
      },
      "properties": {
        "zone_name": "RUTA 2 VIERNES",
        "points_count": 2,
        "route_id": "RUTA_2",
        "day": "VIERNES"
      }
    },
    {
      "type": "Feature",
      "geometry": {
        "type": "Polygon",
        "coordinates": [
          [
            [
              -78.610576,
              -0.934031
            ],
            [
              -78.610595,
              -0.934423
            ],
            [
              -78.610653,
              -0.934811
            ],
            [
              -78.610748,
              -0.935192
            ],
            [
              -78.61088,
              -0.935562
            ],
            [
              -78.611048,
              -0.935917
            ],
            [
              -78.61125,
              -0.936253
            ],
            [
              -78.611484,
              -0.936569
            ],
            [
              -78.611747,
              -0.93686
            ],
            [
              -78.612038,
              -0.937123
            ],
            [
              -78.612354,
              -0.937357
            ],
            [
              -78.61269,
              -0.937559
            ],
            [
              -78.613045,
              -0.937727
            ],
            [
              -78.613415,
              -0.937859
            ],
            [
              -78.613795,
              -0.937954
            ],
            [
              -78.614184,
              -0.938012
            ],
            [
              -78.614576,
              -0.938031
            ],
            [
              -78.614968,
              -0.938012
            ],
            [
              -78.615356,
              -0.937954
            ],
            [
              -78.615737,
              -0.937859
            ],
            [
              -78.616107,
              -0.937727
            ],
            [
              -78.616461,
              -0.937559
            ],
            [
              -78.616798,
              -0.937357
            ],
            [
              -78.617113,
              -0.937123
            ],
            [
              -78.617404,
              -0.93686
            ],
            [
              -78.617668,
              -0.936569
            ],
            [
              -78.617902,
              -0.936253
            ],
            [
              -78.618103,
              -0.935917
            ],
            [
              -78.618271,
              -0.935562
            ],
            [
              -78.618404,
              -0.935192
            ],
            [
              -78.618499,
              -0.934811
            ],
            [
              -78.618557,
              -0.934423
            ],
            [
              -78.618576,
              -0.934031
            ],
            [
              -78.618557,
              -0.933639
            ],
            [
              -78.618499,
              -0.933251
            ],
            [
              -78.618404,
              -0.93287
            ],
            [
              -78.618271,
              -0.9325
            ],
            [
              -78.618103,
              -0.932146
            ],
            [
              -78.617902,
              -0.931809
            ],
            [
              -78.617668,
              -0.931494
            ],
            [
              -78.617404,
              -0.931203
            ],
            [
              -78.617113,
              -0.930939
            ],
            [
              -78.616798,
              -0.930705
            ],
            [
              -78.616461,
              -0.930503
            ],
            [
              -78.616107,
              -0.930336
            ],
            [
              -78.615737,
              -0.930203
            ],
            [
              -78.615356,
              -0.930108
            ],
            [
              -78.614968,
              -0.93005
            ],
            [
              -78.614576,
              -0.930031
            ],
            [
              -78.614184,
              -0.93005
            ],
            [
              -78.613795,
              -0.930108
            ],
            [
              -78.613415,
              -0.930203
            ],
            [
              -78.613045,
              -0.930336
            ],
            [
              -78.61269,
              -0.930503
            ],
            [
              -78.612354,
              -0.930705
            ],
            [
              -78.612038,
              -0.930939
            ],
            [
              -78.611747,
              -0.931203
            ],
            [
              -78.611484,
              -0.931494
            ],
            [
              -78.61125,
              -0.931809
            ],
            [
              -78.611048,
              -0.932146
            ],
            [
              -78.61088,
              -0.9325
            ],
            [
              -78.610748,
              -0.93287
            ],
            [
              -78.610653,
              -0.933251
            ],
            [
              -78.610595,
              -0.933639
            ],
            [
              -78.610576,
              -0.934031
            ]
          ]
        ]
      },
      "properties": {
        "zone_name": "RUTA 3 LUNES",
        "points_count": 3,
        "route_id": "RUTA_3",
        "day": "LUNES"
      }
    },
    {
      "type": "Feature",
      "geometry": {
        "type": "MultiPolygon",
        "coordinates": [
          [
            [
              [
                -78.610595,
                -0.934423
              ],
              [
                -78.612038,
                -0.937123
              ],
              [
                -78.614968,
                -0.938012
              ],
              [
                -78.617668,
                -0.936569
              ],
              [
                -78.618557,
                -0.933639
              ],
              [
                -78.617113,
                -0.930939
              ],
              [
                -78.614184,
                -0.93005
              ],
              [
                -78.611484,
                -0.931494
              ],
              [
                -78.610595,
                -0.934423
              ]
            ]
          ],
          [
            [
              [
                -78.600125,
                -0.800934
              ],
              [
                -78.601568,
                -0.803634
              ],
              [
                -78.604498,
                -0.804523
              ],
              [
                -78.607198,
                -0.803079
              ],
              [
                -78.608087,
                -0.80015
              ],
              [
                -78.606643,
                -0.79745
              ],
              [
                -78.603714,
                -0.796561
              ],
              [
                -78.601014,
                -0.798004
              ],
              [
                -78.600125,
                -0.800934
              ]
            ]
          ]
        ]
      },
      "properties": {
        "zone_name": "RUTA 3 MARTES",
        "points_count": 2,
        "route_id": "RUTA_3",
        "day": "MARTES"
      }
    },
    {
      "type": "Feature",
      "geometry": {
        "type": "MultiPolygon",
        "coordinates": [
          [
            [
              [
                -78.610595,
                -0.934423
              ],
              [
                -78.612038,
                -0.937123
              ],
              [
                -78.614968,
                -0.938012
              ],
              [
                -78.617668,
                -0.936569
              ],
              [
                -78.618557,
                -0.933639
              ],
              [
                -78.617113,
                -0.930939
              ],
              [
                -78.614184,
                -0.93005
              ],
              [
                -78.611484,
                -0.931494
              ],
              [
                -78.610595,
                -0.934423
              ]
            ]
          ],
          [
            [
              [
                -78.600125,
                -0.800934
              ],
              [
                -78.601568,
                -0.803634
              ],
              [
                -78.604498,
                -0.804523
              ],
              [
                -78.607198,
                -0.803079
              ],
              [
                -78.608087,
                -0.80015
              ],
              [
                -78.606643,
                -0.79745
              ],
              [
                -78.603714,
                -0.796561
              ],
              [
                -78.601014,
                -0.798004
              ],
              [
                -78.600125,
                -0.800934
              ]
            ]
          ]
        ]
      },
      "properties": {
        "zone_name": "RUTA 3 MIERCOLES",
        "points_count": 2,
        "route_id": "RUTA_3",
        "day": "MIERCOLES"
      }
    },
    {
      "type": "Feature",
      "geometry": {
        "type": "MultiPolygon",
        "coordinates": [
          [
            [
              [
                -78.610595,
                -0.934423
              ],
              [
                -78.612038,
                -0.937123
              ],
              [
                -78.614968,
                -0.938012
              ],
              [
                -78.617668,
                -0.936569
              ],
              [
                -78.618557,
                -0.933639
              ],
              [
                -78.617113,
                -0.930939
              ],
              [
                -78.614184,
                -0.93005
              ],
              [
                -78.611484,
                -0.931494
              ],
              [
                -78.610595,
                -0.934423
              ]
            ]
          ],
          [
            [
              [
                -78.600125,
                -0.800934
              ],
              [
                -78.601568,
                -0.803634
              ],
              [
                -78.604498,
                -0.804523
              ],
              [
                -78.607198,
                -0.803079
              ],
              [
                -78.608087,
                -0.80015
              ],
              [
                -78.606643,
                -0.79745
              ],
              [
                -78.603714,
                -0.796561
              ],
              [
                -78.601014,
                -0.798004
              ],
              [
                -78.600125,
                -0.800934
              ]
            ]
          ]
        ]
      },
      "properties": {
        "zone_name": "RUTA 3 JUEVES",
        "points_count": 2,
        "route_id": "RUTA_3",
        "day": "JUEVES"
      }
    },
    {
      "type": "Feature",
      "geometry": {
        "type": "MultiPolygon",
        "coordinates": [
          [
            [
              [
                -78.610595,
                -0.934423
              ],
              [
                -78.612038,
                -0.937123
              ],
              [
                -78.614968,
                -0.938012
              ],
              [
                -78.617668,
                -0.936569
              ],
              [
                -78.618557,
                -0.933639
              ],
              [
                -78.617113,
                -0.930939
              ],
              [
                -78.614184,
                -0.93005
              ],
              [
                -78.611484,
                -0.931494
              ],
              [
                -78.610595,
                -0.934423
              ]
            ]
          ],
          [
            [
              [
                -78.600125,
                -0.800934
              ],
              [
                -78.601568,
                -0.803634
              ],
              [
                -78.604498,
                -0.804523
              ],
              [
                -78.607198,
                -0.803079
              ],
              [
                -78.608087,
                -0.80015
              ],
              [
                -78.606643,
                -0.79745
              ],
              [
                -78.603714,
                -0.796561
              ],
              [
                -78.601014,
                -0.798004
              ],
              [
                -78.600125,
                -0.800934
              ]
            ]
          ]
        ]
      },
      "properties": {
        "zone_name": "RUTA 3 VIERNES",
        "points_count": 2,
        "route_id": "RUTA_3",
        "day": "VIERNES"
      }
    },
    {
      "type": "Feature",
      "geometry": {
        "type": "Polygon",
        "coordinates": [
          [
            [
              -78.617386,
              -0.940355
            ],
            [
              -78.617405,
              -0.940747
            ],
            [
              -78.617463,
              -0.941135
            ],
            [
              -78.617558,
              -0.941516
            ],
            [
              -78.61769,
              -0.941886
            ],
            [
              -78.617858,
              -0.942241
            ],
            [
              -78.61806,
              -0.942577
            ],
            [
              -78.618294,
              -0.942893
            ],
            [
              -78.618558,
              -0.943184
            ],
            [
              -78.618848,
              -0.943447
            ],
            [
              -78.619164,
              -0.943681
            ],
            [
              -78.6195,
              -0.943883
            ],
            [
              -78.619855,
              -0.944051
            ],
            [
              -78.620225,
              -0.944183
            ],
            [
              -78.620606,
              -0.944278
            ],
            [
              -78.620994,
              -0.944336
            ],
            [
              -78.621386,
              -0.944355
            ],
            [
              -78.621778,
              -0.944336
            ],
            [
              -78.622166,
              -0.944278
            ],
            [
              -78.622547,
              -0.944183
            ],
            [
              -78.622917,
              -0.944051
            ],
            [
              -78.623272,
              -0.943883
            ],
            [
              -78.623608,
              -0.943681
            ],
            [
              -78.623924,
              -0.943447
            ],
            [
              -78.624214,
              -0.943184
            ],
            [
              -78.624478,
              -0.942893
            ],
            [
              -78.624712,
              -0.942577
            ],
            [
              -78.624914,
              -0.942241
            ],
            [
              -78.625082,
              -0.941886
            ],
            [
              -78.625214,
              -0.941516
            ],
            [
              -78.625309,
              -0.941135
            ],
            [
              -78.625367,
              -0.940747
            ],
            [
              -78.625386,
              -0.940355
            ],
            [
              -78.625367,
              -0.939963
            ],
            [
              -78.625309,
              -0.939575
            ],
            [
              -78.625214,
              -0.939194
            ],
            [
              -78.625082,
              -0.938824
            ],
            [
              -78.624914,
              -0.93847
            ],
            [
              -78.624712,
              -0.938133
            ],
            [
              -78.624478,
              -0.937818
            ],
            [
              -78.624214,
              -0.937527
            ],
            [
              -78.623924,
              -0.937263
            ],
            [
              -78.623608,
              -0.937029
            ],
            [
              -78.623272,
              -0.936827
            ],
            [
              -78.622917,
              -0.93666
            ],
            [
              -78.622547,
              -0.936527
            ],
            [
              -78.622166,
              -0.936432
            ],
            [
              -78.621778,
              -0.936374
            ],
            [
              -78.621386,
              -0.936355
            ],
            [
              -78.620994,
              -0.936374
            ],
            [
              -78.620606,
              -0.936432
            ],
            [
              -78.620225,
              -0.936527
            ],
            [
              -78.619855,
              -0.93666
            ],
            [
              -78.6195,
              -0.936827
            ],
            [
              -78.619164,
              -0.937029
            ],
            [
              -78.618848,
              -0.937263
            ],
            [
              -78.618558,
              -0.937527
            ],
            [
              -78.618294,
              -0.937818
            ],
            [
              -78.61806,
              -0.938133
            ],
            [
              -78.617858,
              -0.93847
            ],
            [
              -78.61769,
              -0.938824
            ],
            [
              -78.617558,
              -0.939194
            ],
            [
              -78.617463,
              -0.939575
            ],
            [
              -78.617405,
              -0.939963
            ],
            [
              -78.617386,
              -0.940355
            ]
          ]
        ]
      },
      "properties": {
        "zone_name": "RUTA 4 TODOS",
        "points_count": 1,
        "route_id": "RUTA_4",
        "day": "TODOS"
      }
    },
    {
      "type": "Feature",
      "geometry": {
        "type": "MultiPolygon",
        "coordinates": [
          [
            [
              [
                -78.617405,
                -0.940747
              ],
              [
                -78.618848,
                -0.943447
              ],
              [
                -78.621778,
                -0.944336
              ],
              [
                -78.624478,
                -0.942893
              ],
              [
                -78.625367,
                -0.939963
              ],
              [
                -78.623924,
                -0.937263
              ],
              [
                -78.620994,
                -0.936374
              ],
              [
                -78.618294,
                -0.937818
              ],
              [
                -78.617405,
                -0.940747
              ]
            ]
          ],
          [
            [
              [
                -78.610595,
                -0.934423
              ],
              [
                -78.612038,
                -0.937123
              ],
              [
                -78.614968,
                -0.938012
              ],
              [
                -78.617668,
                -0.936569
              ],
              [
                -78.618557,
                -0.933639
              ],
              [
                -78.617113,
                -0.930939
              ],
              [
                -78.614184,
                -0.93005
              ],
              [
                -78.611484,
                -0.931494
              ],
              [
                -78.610595,
                -0.934423
              ]
            ]
          ]
        ]
      },
      "properties": {
        "zone_name": "RUTA 4 LUNES",
        "points_count": 2,
        "route_id": "RUTA_4",
        "day": "LUNES"
      }
    },
    {
      "type": "Feature",
      "geometry": {
        "type": "MultiPolygon",
        "coordinates": [
          [
            [
              [
                -78.617405,
                -0.940747
              ],
              [
                -78.618848,
                -0.943447
              ],
              [
                -78.621778,
                -0.944336
              ],
              [
                -78.624478,
                -0.942893
              ],
              [
                -78.625367,
                -0.939963
              ],
              [
                -78.623924,
                -0.937263
              ],
              [
                -78.620994,
                -0.936374
              ],
              [
                -78.618294,
                -0.937818
              ],
              [
                -78.617405,
                -0.940747
              ]
            ]
          ],
          [
            [
              [
                -78.610595,
                -0.934423
              ],
              [
                -78.612038,
                -0.937123
              ],
              [
                -78.614968,
                -0.938012
              ],
              [
                -78.617668,
                -0.936569
              ],
              [
                -78.618557,
                -0.933639
              ],
              [
                -78.617113,
                -0.930939
              ],
              [
                -78.614184,
                -0.93005
              ],
              [
                -78.611484,
                -0.931494
              ],
              [
                -78.610595,
                -0.934423
              ]
            ]
          ]
        ]
      },
      "properties": {
        "zone_name": "RUTA 4 MARTES",
        "points_count": 2,
        "route_id": "RUTA_4",
        "day": "MARTES"
      }
    },
    {
      "type": "Feature",
      "geometry": {
        "type": "Polygon",
        "coordinates": [
          [
            [
              -78.610576,
              -0.934031
            ],
            [
              -78.610595,
              -0.934423
            ],
            [
              -78.610653,
              -0.934811
            ],
            [
              -78.610748,
              -0.935192
            ],
            [
              -78.61088,
              -0.935562
            ],
            [
              -78.611048,
              -0.935917
            ],
            [
              -78.61125,
              -0.936253
            ],
            [
              -78.611484,
              -0.936569
            ],
            [
              -78.611747,
              -0.93686
            ],
            [
              -78.612038,
              -0.937123
            ],
            [
              -78.612354,
              -0.937357
            ],
            [
              -78.61269,
              -0.937559
            ],
            [
              -78.613045,
              -0.937727
            ],
            [
              -78.613415,
              -0.937859
            ],
            [
              -78.613795,
              -0.937954
            ],
            [
              -78.614184,
              -0.938012
            ],
            [
              -78.614576,
              -0.938031
            ],
            [
              -78.614968,
              -0.938012
            ],
            [
              -78.615356,
              -0.937954
            ],
            [
              -78.615737,
              -0.937859
            ],
            [
              -78.616107,
              -0.937727
            ],
            [
              -78.616461,
              -0.937559
            ],
            [
              -78.616798,
              -0.937357
            ],
            [
              -78.617113,
              -0.937123
            ],
            [
              -78.617404,
              -0.93686
            ],
            [
              -78.617668,
              -0.936569
            ],
            [
              -78.617902,
              -0.936253
            ],
            [
              -78.618103,
              -0.935917
            ],
            [
              -78.618271,
              -0.935562
            ],
            [
              -78.618404,
              -0.935192
            ],
            [
              -78.618499,
              -0.934811
            ],
            [
              -78.618557,
              -0.934423
            ],
            [
              -78.618576,
              -0.934031
            ],
            [
              -78.618557,
              -0.933639
            ],
            [
              -78.618499,
              -0.933251
            ],
            [
              -78.618404,
              -0.93287
            ],
            [
              -78.618271,
              -0.9325
            ],
            [
              -78.618103,
              -0.932146
            ],
            [
              -78.617902,
              -0.931809
            ],
            [
              -78.617668,
              -0.931494
            ],
            [
              -78.617404,
              -0.931203
            ],
            [
              -78.617113,
              -0.930939
            ],
            [
              -78.616798,
              -0.930705
            ],
            [
              -78.616461,
              -0.930503
            ],
            [
              -78.616107,
              -0.930336
            ],
            [
              -78.615737,
              -0.930203
            ],
            [
              -78.615356,
              -0.930108
            ],
            [
              -78.614968,
              -0.93005
            ],
            [
              -78.614576,
              -0.930031
            ],
            [
              -78.614184,
              -0.93005
            ],
            [
              -78.613795,
              -0.930108
            ],
            [
              -78.613415,
              -0.930203
            ],
            [
              -78.613045,
              -0.930336
            ],
            [
              -78.61269,
              -0.930503
            ],
            [
              -78.612354,
              -0.930705
            ],
            [
              -78.612038,
              -0.930939
            ],
            [
              -78.611747,
              -0.931203
            ],
            [
              -78.611484,
              -0.931494
            ],
            [
              -78.61125,
              -0.931809
            ],
            [
              -78.611048,
              -0.932146
            ],
            [
              -78.61088,
              -0.9325
            ],
            [
              -78.610748,
              -0.93287
            ],
            [
              -78.610653,
              -0.933251
            ],
            [
              -78.610595,
              -0.933639
            ],
            [
              -78.610576,
              -0.934031
            ]
          ]
        ]
      },
      "properties": {
        "zone_name": "RUTA 4 MIERCOLES",
        "points_count": 3,
        "route_id": "RUTA_4",
        "day": "MIERCOLES"
      }
    },
    {
      "type": "Feature",
      "geometry": {
        "type": "Polygon",
        "coordinates": [
          [
            [
              -78.610576,
              -0.934031
            ],
            [
              -78.610595,
              -0.934423
            ],
            [
              -78.610653,
              -0.934811
            ],
            [
              -78.610748,
              -0.935192
            ],
            [
              -78.61088,
              -0.935562
            ],
            [
              -78.611048,
              -0.935917
            ],
            [
              -78.61125,
              -0.936253
            ],
            [
              -78.611484,
              -0.936569
            ],
            [
              -78.611747,
              -0.93686
            ],
            [
              -78.612038,
              -0.937123
            ],
            [
              -78.612354,
              -0.937357
            ],
            [
              -78.61269,
              -0.937559
            ],
            [
              -78.613045,
              -0.937727
            ],
            [
              -78.613415,
              -0.937859
            ],
            [
              -78.613795,
              -0.937954
            ],
            [
              -78.614184,
              -0.938012
            ],
            [
              -78.614576,
              -0.938031
            ],
            [
              -78.614968,
              -0.938012
            ],
            [
              -78.615356,
              -0.937954
            ],
            [
              -78.615737,
              -0.937859
            ],
            [
              -78.616107,
              -0.937727
            ],
            [
              -78.616461,
              -0.937559
            ],
            [
              -78.616798,
              -0.937357
            ],
            [
              -78.617113,
              -0.937123
            ],
            [
              -78.617404,
              -0.93686
            ],
            [
              -78.617668,
              -0.936569
            ],
            [
              -78.617902,
              -0.936253
            ],
            [
              -78.618103,
              -0.935917
            ],
            [
              -78.618271,
              -0.935562
            ],
            [
              -78.618404,
              -0.935192
            ],
            [
              -78.618499,
              -0.934811
            ],
            [
              -78.618557,
              -0.934423
            ],
            [
              -78.618576,
              -0.934031
            ],
            [
              -78.618557,
              -0.933639
            ],
            [
              -78.618499,
              -0.933251
            ],
            [
              -78.618404,
              -0.93287
            ],
            [
              -78.618271,
              -0.9325
            ],
            [
              -78.618103,
              -0.932146
            ],
            [
              -78.617902,
              -0.931809
            ],
            [
              -78.617668,
              -0.931494
            ],
            [
              -78.617404,
              -0.931203
            ],
            [
              -78.617113,
              -0.930939
            ],
            [
              -78.616798,
              -0.930705
            ],
            [
              -78.616461,
              -0.930503
            ],
            [
              -78.616107,
              -0.930336
            ],
            [
              -78.615737,
              -0.930203
            ],
            [
              -78.615356,
              -0.930108
            ],
            [
              -78.614968,
              -0.93005
            ],
            [
              -78.614576,
              -0.930031
            ],
            [
              -78.614184,
              -0.93005
            ],
            [
              -78.613795,
              -0.930108
            ],
            [
              -78.613415,
              -0.930203
            ],
            [
              -78.613045,
              -0.930336
            ],
            [
              -78.61269,
              -0.930503
            ],
            [
              -78.612354,
              -0.930705
            ],
            [
              -78.612038,
              -0.930939
            ],
            [
              -78.611747,
              -0.931203
            ],
            [
              -78.611484,
              -0.931494
            ],
            [
              -78.61125,
              -0.931809
            ],
            [
              -78.611048,
              -0.932146
            ],
            [
              -78.61088,
              -0.9325
            ],
            [
              -78.610748,
              -0.93287
            ],
            [
              -78.610653,
              -0.933251
            ],
            [
              -78.610595,
              -0.933639
            ],
            [
              -78.610576,
              -0.934031
            ]
          ]
        ]
      },
      "properties": {
        "zone_name": "RUTA 4 JUEVES",
        "points_count": 3,
        "route_id": "RUTA_4",
        "day": "JUEVES"
      }
    },
    {
      "type": "Feature",
      "geometry": {
        "type": "MultiPolygon",
        "coordinates": [
          [
            [
              [
                -78.617405,
                -0.940747
              ],
              [
                -78.618848,
                -0.943447
              ],
              [
                -78.621778,
                -0.944336
              ],
              [
                -78.624478,
                -0.942893
              ],
              [
                -78.625367,
                -0.939963
              ],
              [
                -78.623924,
                -0.937263
              ],
              [
                -78.620994,
                -0.936374
              ],
              [
                -78.618294,
                -0.937818
              ],
              [
                -78.617405,
                -0.940747
              ]
            ]
          ],
          [
            [
              [
                -78.610595,
                -0.934423
              ],
              [
                -78.612038,
                -0.937123
              ],
              [
                -78.614968,
                -0.938012
              ],
              [
                -78.617668,
                -0.936569
              ],
              [
                -78.618557,
                -0.933639
              ],
              [
                -78.617113,
                -0.930939
              ],
              [
                -78.614184,
                -0.93005
              ],
              [
                -78.611484,
                -0.931494
              ],
              [
                -78.610595,
                -0.934423
              ]
            ]
          ]
        ]
      },
      "properties": {
        "zone_name": "RUTA 4 VIERNES",
        "points_count": 2,
        "route_id": "RUTA_4",
        "day": "VIERNES"
      }
    },
    {
      "type": "Feature",
      "geometry": {
        "type": "Polygon",
        "coordinates": [
          [
            [
              -78.610576,
              -0.934031
            ],
            [
              -78.610595,
              -0.934423
            ],
            [
              -78.610653,
              -0.934811
            ],
            [
              -78.610748,
              -0.935192
            ],
            [
              -78.61088,
              -0.935562
            ],
            [
              -78.611048,
              -0.935917
            ],
            [
              -78.61125,
              -0.936253
            ],
            [
              -78.611484,
              -0.936569
            ],
            [
              -78.611747,
              -0.93686
            ],
            [
              -78.612038,
              -0.937123
            ],
            [
              -78.612354,
              -0.937357
            ],
            [
              -78.61269,
              -0.937559
            ],
            [
              -78.613045,
              -0.937727
            ],
            [
              -78.613415,
              -0.937859
            ],
            [
              -78.613795,
              -0.937954
            ],
            [
              -78.614184,
              -0.938012
            ],
            [
              -78.614576,
              -0.938031
            ],
            [
              -78.614968,
              -0.938012
            ],
            [
              -78.615356,
              -0.937954
            ],
            [
              -78.615737,
              -0.937859
            ],
            [
              -78.616107,
              -0.937727
            ],
            [
              -78.616461,
              -0.937559
            ],
            [
              -78.616798,
              -0.937357
            ],
            [
              -78.617113,
              -0.937123
            ],
            [
              -78.617404,
              -0.93686
            ],
            [
              -78.617668,
              -0.936569
            ],
            [
              -78.617902,
              -0.936253
            ],
            [
              -78.618103,
              -0.935917
            ],
            [
              -78.618271,
              -0.935562
            ],
            [
              -78.618404,
              -0.935192
            ],
            [
              -78.618499,
              -0.934811
            ],
            [
              -78.618557,
              -0.934423
            ],
            [
              -78.618576,
              -0.934031
            ],
            [
              -78.618557,
              -0.933639
            ],
            [
              -78.618499,
              -0.933251
            ],
            [
              -78.618404,
              -0.93287
            ],
            [
              -78.618271,
              -0.9325
            ],
            [
              -78.618103,
              -0.932146
            ],
            [
              -78.617902,
              -0.931809
            ],
            [
              -78.617668,
              -0.931494
            ],
            [
              -78.617404,
              -0.931203
            ],
            [
              -78.617113,
              -0.930939
            ],
            [
              -78.616798,
              -0.930705
            ],
            [
              -78.616461,
              -0.930503
            ],
            [
              -78.616107,
              -0.930336
            ],
            [
              -78.615737,
              -0.930203
            ],
            [
              -78.615356,
              -0.930108
            ],
            [
              -78.614968,
              -0.93005
            ],
            [
              -78.614576,
              -0.930031
            ],
            [
              -78.614184,
              -0.93005
            ],
            [
              -78.613795,
              -0.930108
            ],
            [
              -78.613415,
              -0.930203
            ],
            [
              -78.613045,
              -0.930336
            ],
            [
              -78.61269,
              -0.930503
            ],
            [
              -78.612354,
              -0.930705
            ],
            [
              -78.612038,
              -0.930939
            ],
            [
              -78.611747,
              -0.931203
            ],
            [
              -78.611484,
              -0.931494
            ],
            [
              -78.61125,
              -0.931809
            ],
            [
              -78.611048,
              -0.932146
            ],
            [
              -78.61088,
              -0.9325
            ],
            [
              -78.610748,
              -0.93287
            ],
            [
              -78.610653,
              -0.933251
            ],
            [
              -78.610595,
              -0.933639
            ],
            [
              -78.610576,
              -0.934031
            ]
          ]
        ]
      },
      "properties": {
        "zone_name": "RUTA 5 LUNES",
        "points_count": 3,
        "route_id": "RUTA_5",
        "day": "LUNES"
      }
    },
    {
      "type": "Feature",
      "geometry": {
        "type": "Polygon",
        "coordinates": [
          [
            [
              -78.610576,
              -0.934031
            ],
            [
              -78.610595,
              -0.934423
            ],
            [
              -78.610653,
              -0.934811
            ],
            [
              -78.610748,
              -0.935192
            ],
            [
              -78.61088,
              -0.935562
            ],
            [
              -78.611048,
              -0.935917
            ],
            [
              -78.61125,
              -0.936253
            ],
            [
              -78.611484,
              -0.936569
            ],
            [
              -78.611747,
              -0.93686
            ],
            [
              -78.612038,
              -0.937123
            ],
            [
              -78.612354,
              -0.937357
            ],
            [
              -78.61269,
              -0.937559
            ],
            [
              -78.613045,
              -0.937727
            ],
            [
              -78.613415,
              -0.937859
            ],
            [
              -78.613795,
              -0.937954
            ],
            [
              -78.614184,
              -0.938012
            ],
            [
              -78.614576,
              -0.938031
            ],
            [
              -78.614968,
              -0.938012
            ],
            [
              -78.615356,
              -0.937954
            ],
            [
              -78.615737,
              -0.937859
            ],
            [
              -78.616107,
              -0.937727
            ],
            [
              -78.616461,
              -0.937559
            ],
            [
              -78.616798,
              -0.937357
            ],
            [
              -78.617113,
              -0.937123
            ],
            [
              -78.617404,
              -0.93686
            ],
            [
              -78.617668,
              -0.936569
            ],
            [
              -78.617902,
              -0.936253
            ],
            [
              -78.618103,
              -0.935917
            ],
            [
              -78.618271,
              -0.935562
            ],
            [
              -78.618404,
              -0.935192
            ],
            [
              -78.618499,
              -0.934811
            ],
            [
              -78.618557,
              -0.934423
            ],
            [
              -78.618576,
              -0.934031
            ],
            [
              -78.618557,
              -0.933639
            ],
            [
              -78.618499,
              -0.933251
            ],
            [
              -78.618404,
              -0.93287
            ],
            [
              -78.618271,
              -0.9325
            ],
            [
              -78.618103,
              -0.932146
            ],
            [
              -78.617902,
              -0.931809
            ],
            [
              -78.617668,
              -0.931494
            ],
            [
              -78.617404,
              -0.931203
            ],
            [
              -78.617113,
              -0.930939
            ],
            [
              -78.616798,
              -0.930705
            ],
            [
              -78.616461,
              -0.930503
            ],
            [
              -78.616107,
              -0.930336
            ],
            [
              -78.615737,
              -0.930203
            ],
            [
              -78.615356,
              -0.930108
            ],
            [
              -78.614968,
              -0.93005
            ],
            [
              -78.614576,
              -0.930031
            ],
            [
              -78.614184,
              -0.93005
            ],
            [
              -78.613795,
              -0.930108
            ],
            [
              -78.613415,
              -0.930203
            ],
            [
              -78.613045,
              -0.930336
            ],
            [
              -78.61269,
              -0.930503
            ],
            [
              -78.612354,
              -0.930705
            ],
            [
              -78.612038,
              -0.930939
            ],
            [
              -78.611747,
              -0.931203
            ],
            [
              -78.611484,
              -0.931494
            ],
            [
              -78.61125,
              -0.931809
            ],
            [
              -78.611048,
              -0.932146
            ],
            [
              -78.61088,
              -0.9325
            ],
            [
              -78.610748,
              -0.93287
            ],
            [
              -78.610653,
              -0.933251
            ],
            [
              -78.610595,
              -0.933639
            ],
            [
              -78.610576,
              -0.934031
            ]
          ]
        ]
      },
      "properties": {
        "zone_name": "RUTA 5 MARTES",
        "points_count": 3,
        "route_id": "RUTA_5",
        "day": "MARTES"
      }
    },
    {
      "type": "Feature",
      "geometry": {
        "type": "Polygon",
        "coordinates": [
          [
            [
              -78.610576,
              -0.934031
            ],
            [
              -78.610595,
              -0.934423
            ],
            [
              -78.610653,
              -0.934811
            ],
            [
              -78.610748,
              -0.935192
            ],
            [
              -78.61088,
              -0.935562
            ],
            [
              -78.611048,
              -0.935917
            ],
            [
              -78.61125,
              -0.936253
            ],
            [
              -78.611484,
              -0.936569
            ],
            [
              -78.611747,
              -0.93686
            ],
            [
              -78.612038,
              -0.937123
            ],
            [
              -78.612354,
              -0.937357
            ],
            [
              -78.61269,
              -0.937559
            ],
            [
              -78.613045,
              -0.937727
            ],
            [
              -78.613415,
              -0.937859
            ],
            [
              -78.613795,
              -0.937954
            ],
            [
              -78.614184,
              -0.938012
            ],
            [
              -78.614576,
              -0.938031
            ],
            [
              -78.614968,
              -0.938012
            ],
            [
              -78.615356,
              -0.937954
            ],
            [
              -78.615737,
              -0.937859
            ],
            [
              -78.616107,
              -0.937727
            ],
            [
              -78.616461,
              -0.937559
            ],
            [
              -78.616798,
              -0.937357
            ],
            [
              -78.617113,
              -0.937123
            ],
            [
              -78.617404,
              -0.93686
            ],
            [
              -78.617668,
              -0.936569
            ],
            [
              -78.617902,
              -0.936253
            ],
            [
              -78.618103,
              -0.935917
            ],
            [
              -78.618271,
              -0.935562
            ],
            [
              -78.618404,
              -0.935192
            ],
            [
              -78.618499,
              -0.934811
            ],
            [
              -78.618557,
              -0.934423
            ],
            [
              -78.618576,
              -0.934031
            ],
            [
              -78.618557,
              -0.933639
            ],
            [
              -78.618499,
              -0.933251
            ],
            [
              -78.618404,
              -0.93287
            ],
            [
              -78.618271,
              -0.9325
            ],
            [
              -78.618103,
              -0.932146
            ],
            [
              -78.617902,
              -0.931809
            ],
            [
              -78.617668,
              -0.931494
            ],
            [
              -78.617404,
              -0.931203
            ],
            [
              -78.617113,
              -0.930939
            ],
            [
              -78.616798,
              -0.930705
            ],
            [
              -78.616461,
              -0.930503
            ],
            [
              -78.616107,
              -0.930336
            ],
            [
              -78.615737,
              -0.930203
            ],
            [
              -78.615356,
              -0.930108
            ],
            [
              -78.614968,
              -0.93005
            ],
            [
              -78.614576,
              -0.930031
            ],
            [
              -78.614184,
              -0.93005
            ],
            [
              -78.613795,
              -0.930108
            ],
            [
              -78.613415,
              -0.930203
            ],
            [
              -78.613045,
              -0.930336
            ],
            [
              -78.61269,
              -0.930503
            ],
            [
              -78.612354,
              -0.930705
            ],
            [
              -78.612038,
              -0.930939
            ],
            [
              -78.611747,
              -0.931203
            ],
            [
              -78.611484,
              -0.931494
            ],
            [
              -78.61125,
              -0.931809
            ],
            [
              -78.611048,
              -0.932146
            ],
            [
              -78.61088,
              -0.9325
            ],
            [
              -78.610748,
              -0.93287
            ],
            [
              -78.610653,
              -0.933251
            ],
            [
              -78.610595,
              -0.933639
            ],
            [
              -78.610576,
              -0.934031
            ]
          ]
        ]
      },
      "properties": {
        "zone_name": "RUTA 5 MIERCOLES",
        "points_count": 3,
        "route_id": "RUTA_5",
        "day": "MIERCOLES"
      }
    },
    {
      "type": "Feature",
      "geometry": {
        "type": "Polygon",
        "coordinates": [
          [
            [
              -78.610576,
              -0.934031
            ],
            [
              -78.610595,
              -0.934423
            ],
            [
              -78.610653,
              -0.934811
            ],
            [
              -78.610748,
              -0.935192
            ],
            [
              -78.61088,
              -0.935562
            ],
            [
              -78.611048,
              -0.935917
            ],
            [
              -78.61125,
              -0.936253
            ],
            [
              -78.611484,
              -0.936569
            ],
            [
              -78.611747,
              -0.93686
            ],
            [
              -78.612038,
              -0.937123
            ],
            [
              -78.612354,
              -0.937357
            ],
            [
              -78.61269,
              -0.937559
            ],
            [
              -78.613045,
              -0.937727
            ],
            [
              -78.613415,
              -0.937859
            ],
            [
              -78.613795,
              -0.937954
            ],
            [
              -78.614184,
              -0.938012
            ],
            [
              -78.614576,
              -0.938031
            ],
            [
              -78.614968,
              -0.938012
            ],
            [
              -78.615356,
              -0.937954
            ],
            [
              -78.615737,
              -0.937859
            ],
            [
              -78.616107,
              -0.937727
            ],
            [
              -78.616461,
              -0.937559
            ],
            [
              -78.616798,
              -0.937357
            ],
            [
              -78.617113,
              -0.937123
            ],
            [
              -78.617404,
              -0.93686
            ],
            [
              -78.617668,
              -0.936569
            ],
            [
              -78.617902,
              -0.936253
            ],
            [
              -78.618103,
              -0.935917
            ],
            [
              -78.618271,
              -0.935562
            ],
            [
              -78.618404,
              -0.935192
            ],
            [
              -78.618499,
              -0.934811
            ],
            [
              -78.618557,
              -0.934423
            ],
            [
              -78.618576,
              -0.934031
            ],
            [
              -78.618557,
              -0.933639
            ],
            [
              -78.618499,
              -0.933251
            ],
            [
              -78.618404,
              -0.93287
            ],
            [
              -78.618271,
              -0.9325
            ],
            [
              -78.618103,
              -0.932146
            ],
            [
              -78.617902,
              -0.931809
            ],
            [
              -78.617668,
              -0.931494
            ],
            [
              -78.617404,
              -0.931203
            ],
            [
              -78.617113,
              -0.930939
            ],
            [
              -78.616798,
              -0.930705
            ],
            [
              -78.616461,
              -0.930503
            ],
            [
              -78.616107,
              -0.930336
            ],
            [
              -78.615737,
              -0.930203
            ],
            [
              -78.615356,
              -0.930108
            ],
            [
              -78.614968,
              -0.93005
            ],
            [
              -78.614576,
              -0.930031
            ],
            [
              -78.614184,
              -0.93005
            ],
            [
              -78.613795,
              -0.930108
            ],
            [
              -78.613415,
              -0.930203
            ],
            [
              -78.613045,
              -0.930336
            ],
            [
              -78.61269,
              -0.930503
            ],
            [
              -78.612354,
              -0.930705
            ],
            [
              -78.612038,
              -0.930939
            ],
            [
              -78.611747,
              -0.931203
            ],
            [
              -78.611484,
              -0.931494
            ],
            [
              -78.61125,
              -0.931809
            ],
            [
              -78.611048,
              -0.932146
            ],
            [
              -78.61088,
              -0.9325
            ],
            [
              -78.610748,
              -0.93287
            ],
            [
              -78.610653,
              -0.933251
            ],
            [
              -78.610595,
              -0.933639
            ],
            [
              -78.610576,
              -0.934031
            ]
          ]
        ]
      },
      "properties": {
        "zone_name": "RUTA 5 JUEVES",
        "points_count": 3,
        "route_id": "RUTA_5",
        "day": "JUEVES"
      }
    },
    {
      "type": "Feature",
      "geometry": {
        "type": "Polygon",
        "coordinates": [
          [
            [
              -78.610576,
              -0.934031
            ],
            [
              -78.610595,
              -0.934423
            ],
            [
              -78.610653,
              -0.934811
            ],
            [
              -78.610748,
              -0.935192
            ],
            [
              -78.61088,
              -0.935562
            ],
            [
              -78.611048,
              -0.935917
            ],
            [
              -78.61125,
              -0.936253
            ],
            [
              -78.611484,
              -0.936569
            ],
            [
              -78.611747,
              -0.93686
            ],
            [
              -78.612038,
              -0.937123
            ],
            [
              -78.612354,
              -0.937357
            ],
            [
              -78.61269,
              -0.937559
            ],
            [
              -78.613045,
              -0.937727
            ],
            [
              -78.613415,
              -0.937859
            ],
            [
              -78.613795,
              -0.937954
            ],
            [
              -78.614184,
              -0.938012
            ],
            [
              -78.614576,
              -0.938031
            ],
            [
              -78.614968,
              -0.938012
            ],
            [
              -78.615356,
              -0.937954
            ],
            [
              -78.615737,
              -0.937859
            ],
            [
              -78.616107,
              -0.937727
            ],
            [
              -78.616461,
              -0.937559
            ],
            [
              -78.616798,
              -0.937357
            ],
            [
              -78.617113,
              -0.937123
            ],
            [
              -78.617404,
              -0.93686
            ],
            [
              -78.617668,
              -0.936569
            ],
            [
              -78.617902,
              -0.936253
            ],
            [
              -78.618103,
              -0.935917
            ],
            [
              -78.618271,
              -0.935562
            ],
            [
              -78.618404,
              -0.935192
            ],
            [
              -78.618499,
              -0.934811
            ],
            [
              -78.618557,
              -0.934423
            ],
            [
              -78.618576,
              -0.934031
            ],
            [
              -78.618557,
              -0.933639
            ],
            [
              -78.618499,
              -0.933251
            ],
            [
              -78.618404,
              -0.93287
            ],
            [
              -78.618271,
              -0.9325
            ],
            [
              -78.618103,
              -0.932146
            ],
            [
              -78.617902,
              -0.931809
            ],
            [
              -78.617668,
              -0.931494
            ],
            [
              -78.617404,
              -0.931203
            ],
            [
              -78.617113,
              -0.930939
            ],
            [
              -78.616798,
              -0.930705
            ],
            [
              -78.616461,
              -0.930503
            ],
            [
              -78.616107,
              -0.930336
            ],
            [
              -78.615737,
              -0.930203
            ],
            [
              -78.615356,
              -0.930108
            ],
            [
              -78.614968,
              -0.93005
            ],
            [
              -78.614576,
              -0.930031
            ],
            [
              -78.614184,
              -0.93005
            ],
            [
              -78.613795,
              -0.930108
            ],
            [
              -78.613415,
              -0.930203
            ],
            [
              -78.613045,
              -0.930336
            ],
            [
              -78.61269,
              -0.930503
            ],
            [
              -78.612354,
              -0.930705
            ],
            [
              -78.612038,
              -0.930939
            ],
            [
              -78.611747,
              -0.931203
            ],
            [
              -78.611484,
              -0.931494
            ],
            [
              -78.61125,
              -0.931809
            ],
            [
              -78.611048,
              -0.932146
            ],
            [
              -78.61088,
              -0.9325
            ],
            [
              -78.610748,
              -0.93287
            ],
            [
              -78.610653,
              -0.933251
            ],
            [
              -78.610595,
              -0.933639
            ],
            [
              -78.610576,
              -0.934031
            ]
          ]
        ]
      },
      "properties": {
        "zone_name": "RUTA 5 VIERNES",
        "points_count": 1,
        "route_id": "RUTA_5",
        "day": "VIERNES"
      }
    }
  ]
}